      2.10          N: GNSS NAV DATA                        RINEX VERSION / TYPE
fic2rin                                 02/25/2020 00:19:28 PGM / RUN BY / DATE
                                                            END OF HEADER
22 20  2 24  4  0  0.0-7.850094698370e-04-4.547473508865e-13 0.000000000000e+00
    5.200000000000e+01-1.132187500000e+02 5.177358514906e-09-2.481153517592e+00
   -5.815178155899e-06 7.113924482837e-03 5.705282092094e-06 5.153570159912e+03
    1.008000000000e+05 8.754432201385e-08-6.212719840719e-01 8.381903171539e-08
    9.300131877880e-01 2.500000000000e+02-1.221793494843e+00-8.394278226811e-09
   -4.285892810353e-10 1.000000000000e+00 2.094000000000e+03 0.000000000000e+00
    2.400000000000e+00 0.000000000000e+00-1.816079020500e-08 5.200000000000e+01
    9.360000000000e+04 4.000000000000e+00
13 20  2 24  4  0  0.0-1.060310751200e-05 2.728484105319e-12 0.000000000000e+00
    3.800000000000e+01 3.181250000000e+01 4.079098482253e-09-2.392365147017e+00
    1.672655344009e-06 4.165463848040e-03 1.079775393009e-05 5.153664749146e+03
    1.008000000000e+05-3.539025783539e-08 6.339560309505e-01-7.636845111847e-08
    9.681053962871e-01 1.762812500000e+02 1.152339255875e+00-7.674248234671e-09
    4.350181202508e-10 1.000000000000e+00 2.094000000000e+03 0.000000000000e+00
    2.400000000000e+00 0.000000000000e+00-1.117587089539e-08 3.800000000000e+01
    9.360000000000e+04 4.000000000000e+00
 7 20  2 24  4  0  0.0-2.213334664702e-04-8.412825991400e-12 0.000000000000e+00
    9.000000000000e+01 2.159375000000e+01 5.114855911422e-09 1.829688014719e+00
    1.035630702972e-06 1.335484988522e-02 4.449859261513e-06 5.153684719086e+03
    1.008000000000e+05-3.445893526077e-07 1.567327158473e+00-7.450580596924e-09
    9.532387209847e-01 2.923125000000e+02-2.415799524936e+00-8.465709773650e-09
    1.939366496685e-10 1.000000000000e+00 2.094000000000e+03 0.000000000000e+00
    3.400000000000e+00 0.000000000000e+00-1.117587089539e-08 9.000000000000e+01
    9.360000000000e+04 4.000000000000e+00
10 20  2 24  4  0  0.0-2.556382678449e-04-1.296029950026e-11 0.000000000000e+00
    8.300000000000e+01-1.118125000000e+02 4.469114727996e-09 4.858165808963e-01
   -5.725771188736e-06 5.438560503535e-03 7.195398211479e-06 5.153669105530e+03
    1.008000000000e+05 2.607703208923e-08-5.413508646822e-01 8.381903171539e-08
    9.651760564397e-01 2.401250000000e+02-2.666010786553e+00-8.204984627687e-09
   -5.318078662180e-10 1.000000000000e+00 2.094000000000e+03 0.000000000000e+00
    2.400000000000e+00 0.000000000000e+00 1.862645149231e-09 8.300000000000e+01
    9.360000000000e+04 4.000000000000e+00
 6 20  2 24  4  0  0.0-2.159094437957e-04-9.094947017729e-12 0.000000000000e+00
    7.100000000000e+01 3.284375000000e+01 4.573404786381e-09 2.795052053206e+00
    1.933425664902e-06 1.915751607157e-03 2.058222889900e-06 5.153755336761e+03
    1.008000000000e+05 1.247972249985e-07-1.587997033765e+00 4.656612873077e-08
    9.782337077262e-01 3.481875000000e+02-1.124412737835e+00-8.336061516137e-09
    8.964659128322e-11 1.000000000000e+00 2.094000000000e+03 0.000000000000e+00
    2.400000000000e+00 0.000000000000e+00 4.656612873077e-09 7.100000000000e+01
    9.360000000000e+04 4.000000000000e+00
 8 20  2 24  4  0  0.0-2.485141158104e-05-1.364242052659e-12 0.000000000000e+00
    8.000000000000e+01 8.465625000000e+01 4.148387082688e-09-1.367015845286e+00
    4.153698682785e-06 5.225788452663e-03 1.121684908867e-05 5.153633989334e+03
    1.008000000000e+05 3.725290298462e-09-2.648852698776e+00-8.195638656616e-08
    9.702159745326e-01 1.682187500000e+02-1.653545784705e-01-7.834612057325e-09
    2.907263956356e-10 1.000000000000e+00 2.094000000000e+03 0.000000000000e+00
    2.400000000000e+00 0.000000000000e+00 5.122274160385e-09 8.000000000000e+01
    9.360000000000e+04 4.000000000000e+00
11 20  2 24  4  0  0.0-3.524329513311e-04 1.091393642128e-11 0.000000000000e+00
    5.900000000000e+01 1.124062500000e+02 5.750953836025e-09 2.093536112982e+00
    5.679205060005e-06 1.591183978599e-02 4.375353455544e-06 5.153715373993e+03
    1.008000000000e+05 2.011656761169e-07-2.048461352603e+00-5.029141902924e-08
    9.118461210224e-01 2.629375000000e+02 1.963439664000e+00-8.602501185847e-09
    2.385813664430e-10 1.000000000000e+00 2.094000000000e+03 0.000000000000e+00
    2.400000000000e+00 0.000000000000e+00-1.257285475731e-08 5.900000000000e+01
    9.360000000000e+04 4.000000000000e+00
12 20  2 24  4  0  0.0 1.478781923652e-04-4.206412995700e-12 0.000000000000e+00
    9.900000000000e+01-3.068750000000e+01 4.071598169835e-09 1.187884724418e+00
   -1.689419150352e-06 7.996437954716e-03 1.000054180622e-05 5.153742025375e+03
    1.008000000000e+05-1.210719347000e-07 2.672313514550e+00 5.587935447693e-08
    9.795860028661e-01 1.961250000000e+02 1.108791011013e+00-7.846755420288e-09
   -4.896632535828e-10 1.000000000000e+00 2.094000000000e+03 0.000000000000e+00
    2.400000000000e+00 0.000000000000e+00-1.257285475731e-08 9.900000000000e+01
    9.360000000000e+04 4.000000000000e+00
30 20  2 24  4  0  0.0-1.604021526873e-04-8.867573342286e-12 0.000000000000e+00
    3.700000000000e+01 1.743750000000e+01 5.424154509236e-09 1.826980210408e+00
    9.555369615555e-07 4.278238862753e-03 3.976747393608e-06 5.153678663254e+03
    1.008000000000e+05-3.911554813385e-08 1.591421729377e+00 8.195638656616e-08
    9.385874720728e-01 2.917812500000e+02-2.933537848758e+00-8.616787495215e-09
    1.353627812603e-10 1.000000000000e+00 2.094000000000e+03 0.000000000000e+00
    2.400000000000e+00 0.000000000000e+00 3.725290298462e-09 3.700000000000e+01
    9.360000000000e+04 4.000000000000e+00
25 20  2 24  4  0  0.0-1.196376979351e-05 1.591615728103e-12 0.000000000000e+00
    3.600000000000e+01-3.365625000000e+01 4.441970740197e-09 8.920099393373e-01
   -1.888722181320e-06 9.138412890024e-03 9.292736649513e-06 5.153586675644e+03
    1.008000000000e+05-4.842877388000e-08 2.604588024894e+00 8.568167686462e-08
    9.668722704539e-01 2.042500000000e+02 8.998766759784e-01-8.069979004161e-09
   -5.685951128402e-10 1.000000000000e+00 2.094000000000e+03 0.000000000000e+00
    2.400000000000e+00 0.000000000000e+00 5.587935447693e-09 3.600000000000e+01
    9.360000000000e+04 4.000000000000e+00
31 20  2 24  4  0  0.0-2.522207796574e-05-2.501110429876e-12 0.000000000000e+00
    8.400000000000e+01 1.728125000000e+01 4.941634410337e-09 1.421562331674e+00
    1.084059476852e-06 9.644546429627e-03 4.390254616737e-06 5.153775581360e+03
    1.008000000000e+05-7.636845111847e-08 1.582519859699e+00 1.024454832077e-07
    9.576970062558e-01 2.934687500000e+02 1.224373764882e-01-8.312489105680e-09
    8.250343659930e-11 1.000000000000e+00 2.094000000000e+03 0.000000000000e+00
    2.400000000000e+00 0.000000000000e+00-1.350417733192e-08 8.400000000000e+01
    9.360000000000e+04 4.000000000000e+00
24 20  2 24  4  0  0.0-9.496230632067e-06-5.684341886081e-13 0.000000000000e+00
    7.700000000000e+01 2.428125000000e+01 5.359508959346e-09 2.770445386365e+00
    1.214444637299e-06 9.552546311170e-03 4.069879651070e-06 5.153654552460e+03
    1.008000000000e+05-1.117587089539e-08 1.496709425647e+00-1.154839992523e-07
    9.365092521123e-01 2.889687500000e+02 6.620396122644e-01-8.457495145763e-09
    2.864405028253e-10 1.000000000000e+00 2.094000000000e+03 0.000000000000e+00
    3.400000000000e+00 0.000000000000e+00 2.793967723846e-09 7.700000000000e+01
    9.360000000000e+04 4.000000000000e+00
27 20  2 24  4  0  0.0-2.200016751885e-04-1.091393642128e-11 0.000000000000e+00
    7.300000000000e+01 8.984375000000e+01 3.958736325829e-09-1.551913410326e+00
    4.498288035393e-06 7.922295480967e-03 1.097470521927e-05 5.153662683487e+03
    1.008000000000e+05 1.098960638046e-07-2.635323980553e+00-1.229345798492e-07
    9.786012234690e-01 1.752812500000e+02 5.082747696729e-01-7.675319707874e-09
    3.082271246112e-10 1.000000000000e+00 2.094000000000e+03 0.000000000000e+00
    2.400000000000e+00 0.000000000000e+00 1.396983861923e-09 7.300000000000e+01
    9.360000000000e+04 4.000000000000e+00
23 20  2 24  4  0  0.0-1.342264004052e-04 2.614797267597e-12 0.000000000000e+00
    5.400000000000e+01-1.781250000000e+00 4.526259965467e-09-3.024746653868e+00
   -2.291053533554e-07 1.350112434011e-02 1.158006489277e-05 5.153667560577e+03
    1.008000000000e+05 8.381903171539e-08 4.848466018414e-01-1.657754182816e-07
    9.438214389342e-01 1.447500000000e+02-2.194505972725e+00-7.736750838156e-09
    3.789443559820e-10 1.000000000000e+00 2.094000000000e+03 0.000000000000e+00
    2.400000000000e+00 0.000000000000e+00-2.002343535423e-08 5.400000000000e+01
    9.360000000000e+04 4.000000000000e+00
15 20  2 24  4  0  0.0-2.494459040463e-04 2.614797267597e-12 0.000000000000e+00
    9.200000000000e+01 2.500000000000e+00 4.824486673521e-09-2.427046418648e+00
    3.725290298462e-08 1.215324772056e-02 1.184456050396e-05 5.153647426605e+03
    1.008000000000e+05 4.284083843231e-08 4.055203064056e-01-9.126961231232e-08
    9.285798235797e-01 1.323437500000e+02 8.655398059843e-01-7.938902115711e-09
    3.985880313628e-10 1.000000000000e+00 2.094000000000e+03 0.000000000000e+00
    2.400000000000e+00 0.000000000000e+00-1.117587089539e-08 9.200000000000e+01
    9.360000000000e+04 4.000000000000e+00
14 20  2 24  4  0  0.0-3.050221130252e-05 2.387423592154e-12 0.000000000000e+00
    6.300000000000e+01 1.893750000000e+01 4.233033465692e-09-1.825178789177e+00
    9.499490261078e-07 1.098044437822e-02 1.121498644352e-05 5.153619577408e+03
    1.008000000000e+05 3.129243850708e-07 5.876576420024e-01 7.450580596924e-09
    9.607366530522e-01 1.629062500000e+02-1.929488546486e+00-7.679605600684e-09
    4.203746531488e-10 1.000000000000e+00 2.094000000000e+03 0.000000000000e+00
    2.400000000000e+00 0.000000000000e+00-9.778887033463e-09 6.300000000000e+01
    9.360000000000e+04 4.000000000000e+00
